ONEWEB-0361             
1 49287U 21090J   23324.91616425 -.00000027  00000+0 -99170-4 0  9990
2 49287  87.9171 101.4278 0001670  95.1121 265.0203 13.20772147106314
ONEWEB-0362             
1 49288U 21090K   23324.88297857  .00000100  00000+0  21738-3 0  9995
2 49288  87.9168 131.9497 0001277 103.6617 256.4658 13.19726570103020
ONEWEB-0363             
1 49289U 21090L   23324.93298472  .00000015  00000+0  44885-5 0  9991
2 49289  87.9169 101.4211 0001950  89.9636 270.1720 13.20773371106325
ONEWEB-0364             
1 49290U 21090M   23324.89512312 -.00000012  00000+0 -60695-4 0  9995
2 49290  87.9179 101.4460 0001417  92.7508 267.3788 13.20771498107457
ONEWEB-0365             
1 49291U 21090N   23324.89244466 -.00000169  00000+0 -45416-3 0  9994
2 49291  87.9168 131.9375 0001416  93.4379 266.6916 13.19724818102533
ONEWEB-0366             
1 49292U 21090P   23324.91407820 -.00000152  00000+0 -44455-3 0  9997
2 49292  87.8947 116.6862 0001433  86.5977 273.5317 13.14502491104164
ONEWEB-0367             
1 49293U 21090Q   23324.93088058  .00000026  00000+0  30828-4 0  9996
2 49293  87.9168 101.4146 0001403  88.5558 271.5736 13.20769799105844
ONEWEB-0368             
1 49294U 21090R   23324.90352120  .00000052  00000+0  97016-4 0  9999
2 49294  87.9175 101.4443 0001693  65.6057 294.5253 13.20771875106998
