<?xml version="1.0" encoding="UTF-8"?>
<ndm xmlns:xsi="http://www.w3.org/2001/XMLSchema-instance" xsi:noNamespaceSchemaLocation="https://sanaregistry.org/r/ndmxml_unqualified/ndmxml-2.0.0-master-2.0.xsd">
<omm id="CCSDS_OMM_VERS" version="2.0">
<header><CREATION_DATE/><ORIGINATOR/></header><body><segment><metadata><OBJECT_NAME>ONEWEB-0361</OBJECT_NAME><OBJECT_ID>2021-090J</OBJECT_ID><CENTER_NAME>EARTH</CENTER_NAME><REF_FRAME>TEME</REF_FRAME><TIME_SYSTEM>UTC</TIME_SYSTEM><MEAN_ELEMENT_THEORY>SGP4</MEAN_ELEMENT_THEORY></metadata><data><meanElements><EPOCH>2023-11-20T21:59:16.591200</EPOCH><MEAN_MOTION>13.20772147</MEAN_MOTION><ECCENTRICITY>.000167</ECCENTRICITY><INCLINATION>87.9171</INCLINATION><RA_OF_ASC_NODE>101.4278</RA_OF_ASC_NODE><ARG_OF_PERICENTER>95.1121</ARG_OF_PERICENTER><MEAN_ANOMALY>265.0203</MEAN_ANOMALY></meanElements><tleParameters><EPHEMERIS_TYPE>0</EPHEMERIS_TYPE><CLASSIFICATION_TYPE>U</CLASSIFICATION_TYPE><NORAD_CAT_ID>49287</NORAD_CAT_ID><ELEMENT_SET_NO>999</ELEMENT_SET_NO><REV_AT_EPOCH>10631</REV_AT_EPOCH><BSTAR>-.9917E-4</BSTAR><MEAN_MOTION_DOT>-.27E-6</MEAN_MOTION_DOT><MEAN_MOTION_DDOT>0</MEAN_MOTION_DDOT></tleParameters></data></segment></body></omm>
<omm id="CCSDS_OMM_VERS" version="2.0">
<header><CREATION_DATE/><ORIGINATOR/></header><body><segment><metadata><OBJECT_NAME>ONEWEB-0362</OBJECT_NAME><OBJECT_ID>2021-090K</OBJECT_ID><CENTER_NAME>EARTH</CENTER_NAME><REF_FRAME>TEME</REF_FRAME><TIME_SYSTEM>UTC</TIME_SYSTEM><MEAN_ELEMENT_THEORY>SGP4</MEAN_ELEMENT_THEORY></metadata><data><meanElements><EPOCH>2023-11-20T21:11:29.348448</EPOCH><MEAN_MOTION>13.19726570</MEAN_MOTION><ECCENTRICITY>.0001277</ECCENTRICITY><INCLINATION>87.9168</INCLINATION><RA_OF_ASC_NODE>131.9497</RA_OF_ASC_NODE><ARG_OF_PERICENTER>103.6617</ARG_OF_PERICENTER><MEAN_ANOMALY>256.4658</MEAN_ANOMALY></meanElements><tleParameters><EPHEMERIS_TYPE>0</EPHEMERIS_TYPE><CLASSIFICATION_TYPE>U</CLASSIFICATION_TYPE><NORAD_CAT_ID>49288</NORAD_CAT_ID><ELEMENT_SET_NO>999</ELEMENT_SET_NO><REV_AT_EPOCH>10302</REV_AT_EPOCH><BSTAR>.21738E-3</BSTAR><MEAN_MOTION_DOT>.1E-5</MEAN_MOTION_DOT><MEAN_MOTION_DDOT>0</MEAN_MOTION_DDOT></tleParameters></data></segment></body></omm>
<omm id="CCSDS_OMM_VERS" version="2.0">
<header><CREATION_DATE/><ORIGINATOR/></header><body><segment><metadata><OBJECT_NAME>ONEWEB-0363</OBJECT_NAME><OBJECT_ID>2021-090L</OBJECT_ID><CENTER_NAME>EARTH</CENTER_NAME><REF_FRAME>TEME</REF_FRAME><TIME_SYSTEM>UTC</TIME_SYSTEM><MEAN_ELEMENT_THEORY>SGP4</MEAN_ELEMENT_THEORY></metadata><data><meanElements><EPOCH>2023-11-20T22:23:29.879808</EPOCH><MEAN_MOTION>13.20773371</MEAN_MOTION><ECCENTRICITY>.000195</ECCENTRICITY><INCLINATION>87.9169</INCLINATION><RA_OF_ASC_NODE>101.4211</RA_OF_ASC_NODE><ARG_OF_PERICENTER>89.9636</ARG_OF_PERICENTER><MEAN_ANOMALY>270.1720</MEAN_ANOMALY></meanElements><tleParameters><EPHEMERIS_TYPE>0</EPHEMERIS_TYPE><CLASSIFICATION_TYPE>U</CLASSIFICATION_TYPE><NORAD_CAT_ID>49289</NORAD_CAT_ID><ELEMENT_SET_NO>999</ELEMENT_SET_NO><REV_AT_EPOCH>10632</REV_AT_EPOCH><BSTAR>.44885E-5</BSTAR><MEAN_MOTION_DOT>.15E-6</MEAN_MOTION_DOT><MEAN_MOTION_DDOT>0</MEAN_MOTION_DDOT></tleParameters></data></segment></body></omm>
<omm id="CCSDS_OMM_VERS" version="2.0">
<header><CREATION_DATE/><ORIGINATOR/></header><body><segment><metadata><OBJECT_NAME>ONEWEB-0364</OBJECT_NAME><OBJECT_ID>2021-090M</OBJECT_ID><CENTER_NAME>EARTH</CENTER_NAME><REF_FRAME>TEME</REF_FRAME><TIME_SYSTEM>UTC</TIME_SYSTEM><MEAN_ELEMENT_THEORY>SGP4</MEAN_ELEMENT_THEORY></metadata><data><meanElements><EPOCH>2023-11-20T21:28:58.637568</EPOCH><MEAN_MOTION>13.20771498</MEAN_MOTION><ECCENTRICITY>.0001417</ECCENTRICITY><INCLINATION>87.9179</INCLINATION><RA_OF_ASC_NODE>101.4460</RA_OF_ASC_NODE><ARG_OF_PERICENTER>92.7508</ARG_OF_PERICENTER><MEAN_ANOMALY>267.3788</MEAN_ANOMALY></meanElements><tleParameters><EPHEMERIS_TYPE>0</EPHEMERIS_TYPE><CLASSIFICATION_TYPE>U</CLASSIFICATION_TYPE><NORAD_CAT_ID>49290</NORAD_CAT_ID><ELEMENT_SET_NO>999</ELEMENT_SET_NO><REV_AT_EPOCH>10745</REV_AT_EPOCH><BSTAR>-.60695E-4</BSTAR><MEAN_MOTION_DOT>-.12E-6</MEAN_MOTION_DOT><MEAN_MOTION_DDOT>0</MEAN_MOTION_DDOT></tleParameters></data></segment></body></omm>
<omm id="CCSDS_OMM_VERS" version="2.0">
<header><CREATION_DATE/><ORIGINATOR/></header><body><segment><metadata><OBJECT_NAME>ONEWEB-0365</OBJECT_NAME><OBJECT_ID>2021-090N</OBJECT_ID><CENTER_NAME>EARTH</CENTER_NAME><REF_FRAME>TEME</REF_FRAME><TIME_SYSTEM>UTC</TIME_SYSTEM><MEAN_ELEMENT_THEORY>SGP4</MEAN_ELEMENT_THEORY></metadata><data><meanElements><EPOCH>2023-11-20T21:25:07.218624</EPOCH><MEAN_MOTION>13.19724818</MEAN_MOTION><ECCENTRICITY>.0001416</ECCENTRICITY><INCLINATION>87.9168</INCLINATION><RA_OF_ASC_NODE>131.9375</RA_OF_ASC_NODE><ARG_OF_PERICENTER>93.4379</ARG_OF_PERICENTER><MEAN_ANOMALY>266.6916</MEAN_ANOMALY></meanElements><tleParameters><EPHEMERIS_TYPE>0</EPHEMERIS_TYPE><CLASSIFICATION_TYPE>U</CLASSIFICATION_TYPE><NORAD_CAT_ID>49291</NORAD_CAT_ID><ELEMENT_SET_NO>999</ELEMENT_SET_NO><REV_AT_EPOCH>10253</REV_AT_EPOCH><BSTAR>-.45416E-3</BSTAR><MEAN_MOTION_DOT>-.169E-5</MEAN_MOTION_DOT><MEAN_MOTION_DDOT>0</MEAN_MOTION_DDOT></tleParameters></data></segment></body></omm>
<omm id="CCSDS_OMM_VERS" version="2.0">
<header><CREATION_DATE/><ORIGINATOR/></header><body><segment><metadata><OBJECT_NAME>ONEWEB-0366</OBJECT_NAME><OBJECT_ID>2021-090P</OBJECT_ID><CENTER_NAME>EARTH</CENTER_NAME><REF_FRAME>TEME</REF_FRAME><TIME_SYSTEM>UTC</TIME_SYSTEM><MEAN_ELEMENT_THEORY>SGP4</MEAN_ELEMENT_THEORY></metadata><data><meanElements><EPOCH>2023-11-20T21:56:16.356480</EPOCH><MEAN_MOTION>13.14502491</MEAN_MOTION><ECCENTRICITY>.0001433</ECCENTRICITY><INCLINATION>87.8947</INCLINATION><RA_OF_ASC_NODE>116.6862</RA_OF_ASC_NODE><ARG_OF_PERICENTER>86.5977</ARG_OF_PERICENTER><MEAN_ANOMALY>273.5317</MEAN_ANOMALY></meanElements><tleParameters><EPHEMERIS_TYPE>0</EPHEMERIS_TYPE><CLASSIFICATION_TYPE>U</CLASSIFICATION_TYPE><NORAD_CAT_ID>49292</NORAD_CAT_ID><ELEMENT_SET_NO>999</ELEMENT_SET_NO><REV_AT_EPOCH>10416</REV_AT_EPOCH><BSTAR>-.44455E-3</BSTAR><MEAN_MOTION_DOT>-.152E-5</MEAN_MOTION_DOT><MEAN_MOTION_DDOT>0</MEAN_MOTION_DDOT></tleParameters></data></segment></body></omm>
<omm id="CCSDS_OMM_VERS" version="2.0">
<header><CREATION_DATE/><ORIGINATOR/></header><body><segment><metadata><OBJECT_NAME>ONEWEB-0367</OBJECT_NAME><OBJECT_ID>2021-090Q</OBJECT_ID><CENTER_NAME>EARTH</CENTER_NAME><REF_FRAME>TEME</REF_FRAME><TIME_SYSTEM>UTC</TIME_SYSTEM><MEAN_ELEMENT_THEORY>SGP4</MEAN_ELEMENT_THEORY></metadata><data><meanElements><EPOCH>2023-11-20T22:20:28.082112</EPOCH><MEAN_MOTION>13.20769799</MEAN_MOTION><ECCENTRICITY>.0001403</ECCENTRICITY><INCLINATION>87.9168</INCLINATION><RA_OF_ASC_NODE>101.4146</RA_OF_ASC_NODE><ARG_OF_PERICENTER>88.5558</ARG_OF_PERICENTER><MEAN_ANOMALY>271.5736</MEAN_ANOMALY></meanElements><tleParameters><EPHEMERIS_TYPE>0</EPHEMERIS_TYPE><CLASSIFICATION_TYPE>U</CLASSIFICATION_TYPE><NORAD_CAT_ID>49293</NORAD_CAT_ID><ELEMENT_SET_NO>999</ELEMENT_SET_NO><REV_AT_EPOCH>10584</REV_AT_EPOCH><BSTAR>.30828E-4</BSTAR><MEAN_MOTION_DOT>.26E-6</MEAN_MOTION_DOT><MEAN_MOTION_DDOT>0</MEAN_MOTION_DDOT></tleParameters></data></segment></body></omm>
<omm id="CCSDS_OMM_VERS" version="2.0">
<header><CREATION_DATE/><ORIGINATOR/></header><body><segment><metadata><OBJECT_NAME>ONEWEB-0368</OBJECT_NAME><OBJECT_ID>2021-090R</OBJECT_ID><CENTER_NAME>EARTH</CENTER_NAME><REF_FRAME>TEME</REF_FRAME><TIME_SYSTEM>UTC</TIME_SYSTEM><MEAN_ELEMENT_THEORY>SGP4</MEAN_ELEMENT_THEORY></metadata><data><meanElements><EPOCH>2023-11-20T21:41:04.231680</EPOCH><MEAN_MOTION>13.20771875</MEAN_MOTION><ECCENTRICITY>.0001693</ECCENTRICITY><INCLINATION>87.9175</INCLINATION><RA_OF_ASC_NODE>101.4443</RA_OF_ASC_NODE><ARG_OF_PERICENTER>65.6057</ARG_OF_PERICENTER><MEAN_ANOMALY>294.5253</MEAN_ANOMALY></meanElements><tleParameters><EPHEMERIS_TYPE>0</EPHEMERIS_TYPE><CLASSIFICATION_TYPE>U</CLASSIFICATION_TYPE><NORAD_CAT_ID>49294</NORAD_CAT_ID><ELEMENT_SET_NO>999</ELEMENT_SET_NO><REV_AT_EPOCH>10699</REV_AT_EPOCH><BSTAR>.97016E-4</BSTAR><MEAN_MOTION_DOT>.52E-6</MEAN_MOTION_DOT><MEAN_MOTION_DDOT>0</MEAN_MOTION_DDOT></tleParameters></data></segment></body></omm>

</ndm>
